[{"OBJECT_NAME":"TIANPING-3A 02","OBJECT_ID":"2025-068A","EPOCH":"2026-03-09T20:54:34.712640","MEAN_MOTION":14.85842181,"ECCENTRICITY":0.02320093,"INCLINATION":43.0011,"RA_OF_ASC_NODE":213.5906,"ARG_OF_PERICENTER":358.6421,"MEAN_ANOMALY":1.3764,"EPHEMERIS_TYPE":0,"CLASSIFICATION_TYPE":"U","NORAD_CAT_ID":63432,"ELEMENT_SET_NO":999,"REV_AT_EPOCH":5060,"BSTAR":0.00038259976,"MEAN_MOTION_DOT":5.293e-5,"MEAN_MOTION_DDOT":0},{"OBJECT_NAME":"COSMOS 2251 DEB","OBJECT_ID":"1993-036YF","EPOCH":"2026-03-09T20:09:31.112352","MEAN_MOTION":14.58414598,"ECCENTRICITY":0.0012017,"INCLINATION":74.032,"RA_OF_ASC_NODE":343.0542,"ARG_OF_PERICENTER":66.8207,"MEAN_ANOMALY":359.5675,"EPHEMERIS_TYPE":0,"CLASSIFICATION_TYPE":"U","NORAD_CAT_ID":34685,"ELEMENT_SET_NO":999,"REV_AT_EPOCH":89801,"BSTAR":0.0011009014,"MEAN_MOTION_DOT":5.083e-5,"MEAN_MOTION_DDOT":0}]
